******** Week 64 almanac for PRN-01 ********
ID:                         01
Health:                     000
Eccentricity:               0.1002120972E-001
Time of Applicability(s):  405504.0000
Orbital Inclination(rad):   0.9807554104
Rate of Right Ascen(r/s):  -0.7588887536E-008
SQRT(A)  (m 1/2):           5153.669922
Right Ascen at Week(rad):   0.2447248384E+001
Argument of Perigee(rad):   0.799029470
Mean Anom(rad):             0.1231613176E+001
Af0(s):                     0.2002716064E-004
Af1(s/s):                   0.7275957614E-011
week:                        64

******** Week 64 almanac for PRN-02 ********
ID:                         02
Health:                     000
Eccentricity:               0.1972055435E-001
Time of Applicability(s):  405504.0000
Orbital Inclination(rad):   0.9596631746
Rate of Right Ascen(r/s):  -0.7863184676E-008
SQRT(A)  (m 1/2):           5153.685059
Right Ascen at Week(rad):   0.2370214161E+001
Argument of Perigee(rad):  -1.620893383
Mean Anom(rad):             0.1477292034E+001
Af0(s):                    -0.4816055298E-003
Af1(s/s):                  -0.7275957614E-011
week:                        64

******** Week 64 almanac for PRN-03 ********
ID:                         03
Health:                     000
Eccentricity:               0.3020286560E-002
Time of Applicability(s):  405504.0000
Orbital Inclination(rad):   0.9663383879
Rate of Right Ascen(r/s):  -0.7703178011E-008
SQRT(A)  (m 1/2):           5153.744629
Right Ascen at Week(rad):  -0.2796112916E+001
Argument of Perigee(rad):   0.770816732
Mean Anom(rad):             0.1842803028E+000
Af0(s):                    -0.2269744873E-003
Af1(s/s):                  -0.1091393642E-010
week:                        64

******** Week 64 almanac for PRN-04 ********
ID:                         04
Health:                     000
Eccentricity:               0.7767677307E-003
Time of Applicability(s):  405504.0000
Orbital Inclination(rad):   0.9595673008
Rate of Right Ascen(r/s):  -0.7966046104E-008
SQRT(A)  (m 1/2):           5153.597656
Right Ascen at Week(rad):  -0.1717016229E+001
Argument of Perigee(rad):  -2.634068968
Mean Anom(rad):             0.2402334505E+001
Af0(s):                    -0.1096725464E-003
Af1(s/s):                  -0.3637978807E-011
week:                        64

******** Week 64 almanac for PRN-05 ********
ID:                         05
Health:                     000
Eccentricity:               0.5970478058E-002
Time of Applicability(s):  405504.0000
Orbital Inclination(rad):   0.9532576064
Rate of Right Ascen(r/s):  -0.7794610391E-008
SQRT(A)  (m 1/2):           5153.637207
Right Ascen at Week(rad):  -0.2828488674E+001
Argument of Perigee(rad):   0.814047951
Mean Anom(rad):            -0.2120276784E+001
Af0(s):                    -0.1621246338E-004
Af1(s/s):                   0.0000000000E+000
week:                        64

******** Week 64 almanac for PRN-06 ********
ID:                         06
Health:                     000
Eccentricity:               0.1818180084E-002
Time of Applicability(s):  405504.0000
Orbital Inclination(rad):   0.9803000099
Rate of Right Ascen(r/s):  -0.7634603726E-008
SQRT(A)  (m 1/2):           5153.529785
Right Ascen at Week(rad):   0.2439002114E+001
Argument of Perigee(rad):  -1.059251934
Mean Anom(rad):             0.1433533883E+001
Af0(s):                    -0.2975463867E-003
Af1(s/s):                  -0.3637978807E-011
week:                        64

******** Week 64 almanac for PRN-07 ********
ID:                         07
Health:                     000
Eccentricity:               0.1406002045E-001
Time of Applicability(s):  405504.0000
Orbital Inclination(rad):   0.9529759771
Rate of Right Ascen(r/s):  -0.7691748964E-008
SQRT(A)  (m 1/2):           5153.608398
Right Ascen at Week(rad):  -0.6910328785E+000
Argument of Perigee(rad):  -2.383589305
Mean Anom(rad):             0.4893466125E+000
Af0(s):                    -0.3185272217E-003
Af1(s/s):                  -0.7275957614E-011
week:                        64

******** Week 64 almanac for PRN-08 ********
ID:                         08
Health:                     000
Eccentricity:               0.5346298218E-002
Time of Applicability(s):  405504.0000
Orbital Inclination(rad):   0.9692924993
Rate of Right Ascen(r/s):  -0.8240343243E-008
SQRT(A)  (m 1/2):           5153.636230
Right Ascen at Week(rad):   0.1376508447E+001
Argument of Perigee(rad):  -0.058827939
Mean Anom(rad):            -0.2775783926E+001
Af0(s):                    -0.4005432129E-004
Af1(s/s):                   0.0000000000E+000
week:                        64

******** Week 64 almanac for PRN-09 ********
ID:                         09
Health:                     000
Eccentricity:               0.1533031464E-002
Time of Applicability(s):  405504.0000
Orbital Inclination(rad):   0.9523228368
Rate of Right Ascen(r/s):  -0.8046049436E-008
SQRT(A)  (m 1/2):           5153.635254
Right Ascen at Week(rad):  -0.1765237754E+001
Argument of Perigee(rad):   1.790787373
Mean Anom(rad):            -0.2541093853E+001
Af0(s):                    -0.2470016479E-003
Af1(s/s):                  -0.7275957614E-011
week:                        64

******** Week 64 almanac for PRN-10 ********
ID:                         10
Health:                     000
Eccentricity:               0.5679607391E-002
Time of Applicability(s):  405504.0000
Orbital Inclination(rad):   0.9662784667
Rate of Right Ascen(r/s):  -0.7646032774E-008
SQRT(A)  (m 1/2):           5153.617188
Right Ascen at Week(rad):  -0.2799131817E+001
Argument of Perigee(rad):  -2.639362625
Mean Anom(rad):            -0.8424662934E+000
Af0(s):                    -0.3881454468E-003
Af1(s/s):                  -0.1091393642E-010
week:                        64

******** Week 64 almanac for PRN-11 ********
ID:                         11
Health:                     000
Eccentricity:               0.1605176926E-001
Time of Applicability(s):  405504.0000
Orbital Inclination(rad):   0.9128647763
Rate of Right Ascen(r/s):  -0.8526069431E-008
SQRT(A)  (m 1/2):           5153.657227
Right Ascen at Week(rad):   0.1970248519E+001
Argument of Perigee(rad):   2.000604561
Mean Anom(rad):             0.7142736611E+000
Af0(s):                    -0.2326965332E-003
Af1(s/s):                   0.1091393642E-010
week:                        64

******** Week 64 almanac for PRN-12 ********
ID:                         12
Health:                     000
Eccentricity:               0.8000373840E-002
Time of Applicability(s):  405504.0000
Orbital Inclination(rad):   0.9781488415
Rate of Right Ascen(r/s):  -0.7806039439E-008
SQRT(A)  (m 1/2):           5153.625977
Right Ascen at Week(rad):   0.4151365468E+000
Argument of Perigee(rad):   1.164127758
Mean Anom(rad):            -0.2110380810E+000
Af0(s):                     0.9918212891E-004
Af1(s/s):                  -0.3637978807E-011
week:                        64

******** Week 64 almanac for PRN-13 ********
ID:                         13
Health:                     000
Eccentricity:               0.4193305969E-002
Time of Applicability(s):  405504.0000
Orbital Inclination(rad):   0.9673870075
Rate of Right Ascen(r/s):  -0.7863184676E-008
SQRT(A)  (m 1/2):           5153.598633
Right Ascen at Week(rad):  -0.1621734900E+001
Argument of Perigee(rad):   1.059539930
Mean Anom(rad):             0.2684507575E+001
Af0(s):                     0.2288818359E-004
Af1(s/s):                   0.3637978807E-011
week:                        64

******** Week 64 almanac for PRN-14 ********
ID:                         14
Health:                     000
Eccentricity:               0.1153659821E-001
Time of Applicability(s):  405504.0000
Orbital Inclination(rad):   0.9599987329
Rate of Right Ascen(r/s):  -0.7943188009E-008
SQRT(A)  (m 1/2):           5153.598145
Right Ascen at Week(rad):  -0.1668994691E+001
Argument of Perigee(rad):  -1.910466337
Mean Anom(rad):            -0.3120499294E+001
Af0(s):                    -0.1907348633E-005
Af1(s/s):                   0.3637978807E-011
week:                        64

******** Week 64 almanac for PRN-15 ********
ID:                         15
Health:                     000
Eccentricity:               0.1239490509E-001
Time of Applicability(s):  405504.0000
Orbital Inclination(rad):   0.9279109707
Rate of Right Ascen(r/s):  -0.8308917528E-008
SQRT(A)  (m 1/2):           5153.634766
Right Ascen at Week(rad):  -0.1855725393E+001
Argument of Perigee(rad):   0.888289101
Mean Anom(rad):             0.2533173404E+001
Af0(s):                    -0.2202987671E-003
Af1(s/s):                   0.3637978807E-011
week:                        64

******** Week 64 almanac for PRN-16 ********
ID:                         16
Health:                     000
Eccentricity:               0.1145172119E-001
Time of Applicability(s):  405504.0000
Orbital Inclination(rad):   0.9783525733
Rate of Right Ascen(r/s):  -0.7817468486E-008
SQRT(A)  (m 1/2):           5153.744141
Right Ascen at Week(rad):   0.4339847365E+000
Argument of Perigee(rad):   0.634729492
Mean Anom(rad):            -0.2069052461E+001
Af0(s):                    -0.1773834229E-003
Af1(s/s):                  -0.3637978807E-011
week:                        64

******** Week 64 almanac for PRN-17 ********
ID:                         17
Health:                     000
Eccentricity:               0.1323270798E-001
Time of Applicability(s):  405504.0000
Orbital Inclination(rad):   0.9836136481
Rate of Right Ascen(r/s):  -0.8057478483E-008
SQRT(A)  (m 1/2):           5153.672852
Right Ascen at Week(rad):   0.1449750038E+001
Argument of Perigee(rad):  -1.640829516
Mean Anom(rad):            -0.2991705578E+001
Af0(s):                     0.2899169922E-003
Af1(s/s):                   0.7275957614E-011
week:                        64

